{
  "constellation": "gps",
  "timestamp": "2025-07-21T05:06:14.396670+00:00",
  "satellite_count": 32,
  "data": [
    {
      "satellite_name": "GPS BIIR-2  (PRN 13)",
      "catalog_number": 24876,
      "epoch_year": 2025,
      "epoch_day": 201.14682791,
      "first_derivative": -3.8e-07,
      "second_derivative": 0.0,
      "drag_term": 0.0,
      "inclination": 55.8219,
      "right_ascension": 111.5653,
      "eccentricity": 0.009296,
      "argument_of_perigee": 54.9341,
      "mean_anomaly": 305.9456,
      "mean_motion": 2.00562427,
      "revolution_number": 20509,
      "line1": "1 24876U 97035A   25201.14682791 -.00000038  00000+0  00000+0 0  9999",
      "line2": "2 24876  55.8219 111.5653 0092960  54.9341 305.9456  2.00562427205099",
      "last_updated": "2025-07-21T05:06:14.396529+00:00",
      "constellation": "gps"
    },
    {
      "satellite_name": "GPS BIIR-4  (PRN 20)",
      "catalog_number": 26360,
      "epoch_year": 2025,
      "epoch_day": 201.76966962,
      "first_derivative": -6.4e-07,
      "second_derivative": 0.0,
      "drag_term": 0.0,
      "inclination": 54.9583,
      "right_ascension": 32.6973,
      "eccentricity": 0.0035599,
      "argument_of_perigee": 232.6086,
      "mean_anomaly": 304.68,
      "mean_motion": 2.00578557,
      "revolution_number": 18461,
      "line1": "1 26360U 00025A   25201.76966962 -.00000064  00000+0  00000+0 0  9994",
      "line2": "2 26360  54.9583  32.6973 0035599 232.6086 304.6800  2.00578557184611",
      "last_updated": "2025-07-21T05:06:14.396538+00:00",
      "constellation": "gps"
    },
    {
      "satellite_name": "GPS BIIR-5  (PRN 22)",
      "catalog_number": 26407,
      "epoch_year": 2025,
      "epoch_day": 201.48407259,
      "first_derivative": 9.3e-07,
      "second_derivative": 0.0,
      "drag_term": 0.0,
      "inclination": 54.9306,
      "right_ascension": 228.3401,
      "eccentricity": 0.0132571,
      "argument_of_perigee": 298.9931,
      "mean_anomaly": 234.4432,
      "mean_motion": 2.00566185,
      "revolution_number": 18329,
      "line1": "1 26407U 00040A   25201.48407259  .00000093  00000+0  00000+0 0  9992",
      "line2": "2 26407  54.9306 228.3401 0132571 298.9931 234.4432  2.00566185183296",
      "last_updated": "2025-07-21T05:06:14.396543+00:00",
      "constellation": "gps"
    },
    {
      "satellite_name": "GPS BIIR-8  (PRN 16)",
      "catalog_number": 27663,
      "epoch_year": 2025,
      "epoch_day": 201.61138703,
      "first_derivative": 9.3e-07,
      "second_derivative": 0.0,
      "drag_term": 0.0,
      "inclination": 54.9649,
      "right_ascension": 228.1451,
      "eccentricity": 0.0142691,
      "argument_of_perigee": 50.3063,
      "mean_anomaly": 351.2945,
      "mean_motion": 2.00552273,
      "revolution_number": 16465,
      "line1": "1 27663U 03005A   25201.61138703  .00000093  00000+0  00000+0 0  9991",
      "line2": "2 27663  54.9649 228.1451 0142691  50.3063 351.2945  2.00552273164653",
      "last_updated": "2025-07-21T05:06:14.396548+00:00",
      "constellation": "gps"
    },
    {
      "satellite_name": "GPS BIIR-11 (PRN 19)",
      "catalog_number": 28190,
      "epoch_year": 2025,
      "epoch_day": 201.32005459,
      "first_derivative": -4.2e-07,
      "second_derivative": 0.0,
      "drag_term": 0.0,
      "inclination": 55.1077,
      "right_ascension": 289.0783,
      "eccentricity": 0.010669,
      "argument_of_perigee": 162.9715,
      "mean_anomaly": 188.7802,
      "mean_motion": 2.00566219,
      "revolution_number": 15628,
      "line1": "1 28190U 04009A   25201.32005459 -.00000042  00000+0  00000+0 0  9996",
      "line2": "2 28190  55.1077 289.0783 0106690 162.9715 188.7802  2.00566219156284",
      "last_updated": "2025-07-21T05:06:14.396552+00:00",
      "constellation": "gps"
    },
    {
      "satellite_name": "GPS BIIR-13 (PRN 02)",
      "catalog_number": 28474,
      "epoch_year": 2025,
      "epoch_day": 200.68956459,
      "first_derivative": -9.3e-07,
      "second_derivative": 0.0,
      "drag_term": 0.0,
      "inclination": 55.3091,
      "right_ascension": 338.277,
      "eccentricity": 0.0166016,
      "argument_of_perigee": 304.602,
      "mean_anomaly": 11.016,
      "mean_motion": 2.00562757,
      "revolution_number": 15175,
      "line1": "1 28474U 04045A   25200.68956459 -.00000093  00000+0  00000+0 0  9990",
      "line2": "2 28474  55.3091 338.2770 0166016 304.6020  11.0160  2.00562757151757",
      "last_updated": "2025-07-21T05:06:14.396557+00:00",
      "constellation": "gps"
    },
    {
      "satellite_name": "GPS BIIRM-1 (PRN 17)",
      "catalog_number": 28874,
      "epoch_year": 2025,
      "epoch_day": 201.310796,
      "first_derivative": -3.6e-07,
      "second_derivative": 0.0,
      "drag_term": 0.0,
      "inclination": 55.1525,
      "right_ascension": 286.5541,
      "eccentricity": 0.0133019,
      "argument_of_perigee": 290.4267,
      "mean_anomaly": 78.2042,
      "mean_motion": 2.00557849,
      "revolution_number": 14518,
      "line1": "1 28874U 05038A   25201.31079600 -.00000036  00000+0  00000+0 0  9999",
      "line2": "2 28874  55.1525 286.5541 0133019 290.4267  78.2042  2.00557849145184",
      "last_updated": "2025-07-21T05:06:14.396562+00:00",
      "constellation": "gps"
    },
    {
      "satellite_name": "GPS BIIRM-2 (PRN 31)",
      "catalog_number": 29486,
      "epoch_year": 2025,
      "epoch_day": 200.95247747,
      "first_derivative": 5.2e-07,
      "second_derivative": 0.0,
      "drag_term": 0.0,
      "inclination": 54.6875,
      "right_ascension": 164.5236,
      "eccentricity": 0.0104703,
      "argument_of_perigee": 47.3556,
      "mean_anomaly": 324.082,
      "mean_motion": 2.0056059,
      "revolution_number": 13773,
      "line1": "1 29486U 06042A   25200.95247747  .00000052  00000+0  00000+0 0  9990",
      "line2": "2 29486  54.6875 164.5236 0104703  47.3556 324.0820  2.00560590137735",
      "last_updated": "2025-07-21T05:06:14.396566+00:00",
      "constellation": "gps"
    },
    {
      "satellite_name": "GPS BIIRM-3 (PRN 12)",
      "catalog_number": 29601,
      "epoch_year": 2025,
      "epoch_day": 201.36530222,
      "first_derivative": 9.5e-07,
      "second_derivative": 0.0,
      "drag_term": 0.0,
      "inclination": 55.0077,
      "right_ascension": 227.1629,
      "eccentricity": 0.0084693,
      "argument_of_perigee": 86.7845,
      "mean_anomaly": 274.2491,
      "mean_motion": 2.00565103,
      "revolution_number": 13675,
      "line1": "1 29601U 06052A   25201.36530222  .00000095  00000+0  00000+0 0  9996",
      "line2": "2 29601  55.0077 227.1629 0084693  86.7845 274.2491  2.00565103136754",
      "last_updated": "2025-07-21T05:06:14.396569+00:00",
      "constellation": "gps"
    },
    {
      "satellite_name": "GPS BIIRM-4 (PRN 15)",
      "catalog_number": 32260,
      "epoch_year": 2025,
      "epoch_day": 201.67052403,
      "first_derivative": -5.2e-07,
      "second_derivative": 0.0,
      "drag_term": 0.0,
      "inclination": 53.8493,
      "right_ascension": 93.7526,
      "eccentricity": 0.016282,
      "argument_of_perigee": 82.2991,
      "mean_anomaly": 279.5837,
      "mean_motion": 2.00570492,
      "revolution_number": 13018,
      "line1": "1 32260U 07047A   25201.67052403 -.00000052  00000+0  00000+0 0  9994",
      "line2": "2 32260  53.8493  93.7526 0162820  82.2991 279.5837  2.00570492130182",
      "last_updated": "2025-07-21T05:06:14.396573+00:00",
      "constellation": "gps"
    },
    {
      "satellite_name": "GPS BIIRM-5 (PRN 29)",
      "catalog_number": 32384,
      "epoch_year": 2025,
      "epoch_day": 199.99211522,
      "first_derivative": -4.1e-07,
      "second_derivative": 0.0,
      "drag_term": 0.0,
      "inclination": 55.3014,
      "right_ascension": 287.5302,
      "eccentricity": 0.00326,
      "argument_of_perigee": 160.3363,
      "mean_anomaly": 196.2529,
      "mean_motion": 2.00569891,
      "revolution_number": 12882,
      "line1": "1 32384U 07062A   25199.99211522 -.00000041  00000+0  00000+0 0  9996",
      "line2": "2 32384  55.3014 287.5302 0032600 160.3363 196.2529  2.00569891128825",
      "last_updated": "2025-07-21T05:06:14.396577+00:00",
      "constellation": "gps"
    },
    {
      "satellite_name": "GPS BIIRM-6 (PRN 07)",
      "catalog_number": 32711,
      "epoch_year": 2025,
      "epoch_day": 201.08836793,
      "first_derivative": 4.7e-07,
      "second_derivative": 0.0,
      "drag_term": 0.0,
      "inclination": 54.4668,
      "right_ascension": 163.1857,
      "eccentricity": 0.0200173,
      "argument_of_perigee": 243.7476,
      "mean_anomaly": 114.1575,
      "mean_motion": 2.00559507,
      "revolution_number": 12709,
      "line1": "1 32711U 08012A   25201.08836793  .00000047  00000+0  00000+0 0  9998",
      "line2": "2 32711  54.4668 163.1857 0200173 243.7476 114.1575  2.00559507127092",
      "last_updated": "2025-07-21T05:06:14.396581+00:00",
      "constellation": "gps"
    },
    {
      "satellite_name": "GPS BIIRM-8 (PRN 05)",
      "catalog_number": 35752,
      "epoch_year": 2025,
      "epoch_day": 201.58069414,
      "first_derivative": -5.7e-07,
      "second_derivative": 0.0,
      "drag_term": 0.0,
      "inclination": 55.9895,
      "right_ascension": 40.5032,
      "eccentricity": 0.0055764,
      "argument_of_perigee": 79.7421,
      "mean_anomaly": 290.8204,
      "mean_motion": 2.00573755,
      "revolution_number": 11671,
      "line1": "1 35752U 09043A   25201.58069414 -.00000057  00000+0  00000+0 0  9996",
      "line2": "2 35752  55.9895  40.5032 0055764  79.7421 290.8204  2.00573755116711",
      "last_updated": "2025-07-21T05:06:14.396585+00:00",
      "constellation": "gps"
    }
  ]
}